{
    "links": {
        "self": "http://www.neowsapp.com/rest/v1/neo/3791279?api_key=iIulBulltgU6a56xZRHN4H3l9WmuAYTsLGpBGhQ2"
    },
    "id": "3791279",
    "neo_reference_id": "3791279",
    "name": "(2017 XH2)",
    "designation": "2017 XH2",
    "nasa_jpl_url": "http://ssd.jpl.nasa.gov/sbdb.cgi?sstr=3791279",
    "absolute_magnitude_h": 23.6,
    "estimated_diameter": {
        "kilometers": {
            "estimated_diameter_min": 0.0506471459,
            "estimated_diameter_max": 0.1132504611
        },
        "meters": {
            "estimated_diameter_min": 50.6471458835,
            "estimated_diameter_max": 113.2504610618
        },
        "miles": {
            "estimated_diameter_min": 0.0314706677,
            "estimated_diameter_max": 0.0703705522
        },
        "feet": {
            "estimated_diameter_min": 166.1651821003,
            "estimated_diameter_max": 371.5566426699
        }
    },
    "is_potentially_hazardous_asteroid": false,
    "close_approach_data": [
        {
            "close_approach_date": "2017-12-09",
            "close_approach_date_full": "2017-Dec-09 07:32",
            "epoch_date_close_approach": 1512804720000,
            "relative_velocity": {
                "kilometers_per_second": "20.025126647",
                "kilometers_per_hour": "72090.4559292709",
                "miles_per_hour": "44794.2057967184"
            },
            "miss_distance": {
                "astronomical": "0.0822015658",
                "lunar": "31.9764090962",
                "kilometers": "12297179.154344846",
                "miles": "7641112.8034010348"
            },
            "orbiting_body": "Earth"
        }
    ],
    "orbital_data": {
        "orbit_id": "1",
        "orbit_determination_date": "2017-12-14 07:42:11",
        "first_observation_date": "2017-12-09",
        "last_observation_date": "2017-12-14",
        "data_arc_in_days": 5,
        "observations_used": 59,
        "orbit_uncertainty": "8",
        "minimum_orbit_intersection": ".0752655",
        "jupiter_tisserand_invariant": "3.121",
        "epoch_osculation": "2458097.5",
        "eccentricity": ".5631910109587083",
        "semi_major_axis": "2.385777171986683",
        "inclination": "32.86333021420995",
        "ascending_node_longitude": "77.49621482470712",
        "orbital_period": "1345.994375264851",
        "perihelion_distance": "1.042128914573295",
        "perihelion_argument": "18.38746795121026",
        "aphelion_distance": "3.729425429400071",
        "perihelion_time": "2458111.247642331405",
        "mean_anomaly": "356.3230520645141",
        "mean_motion": ".2674602558641175",
        "equinox": "J2000",
        "orbit_class": {
            "orbit_class_type": "AMO",
            "orbit_class_description": "Near-Earth asteroid orbits similar to that of 1221 Amor",
            "orbit_class_range": "1.017 AU < q (perihelion) < 1.3 AU"
        }
    },
    "is_sentry_object": false
}